[{
  "_id": {
    "$oid": "55f14312c7447c3da7051b26"
  },
  "URL": "http://www.just-eat.co.uk/restaurants-cn-chinese-cardiff/menu",
  "address": "228 City Road",
  "address line 2": "Cardiff",
  "name": ".CN Chinese",
  "outcode": "CF24",
  "postcode": "3JH",
  "rating": 5,
  "type_of_food": "Chinese"
},
{
  "_id": {
    "$oid": "55f14312c7447c3da7051b2f"
  },
  "URL": "http://www.just-eat.co.uk/restaurants-1-2-3-chinese-rowlands-gill/menu",
  "address": "Unit 4 Spencer House",
  "address line 2": "Swalwell",
  "name": "1 2 3 Chinese",
  "outcode": "NE16",
  "postcode": "3DS",
  "rating": 4.5,
  "type_of_food": "Chinese"
},
{
  "_id": {
    "$oid": "55f14312c7447c3da7051b30"
  },
  "URL": "http://www.just-eat.co.uk/restaurants-1-2-3-chinese-rowlands-gill/menu",
  "address": "Unit 4 Spencer House",
  "address line 2": "Swalwell",
  "name": "1 2 3 Chinese",
  "outcode": "NE16",
  "postcode": "3DS",
  "rating": 4.5,
  "type_of_food": "Chinese"
},
{
  "_id": {
    "$oid": "55f14312c7447c3da7051b31"
  },
  "URL": "http://www.just-eat.co.uk/restaurants-100-degrees-chinese-restaurant-pontypridd/menu",
  "address": "67 Park Street",
  "address line 2": "Treforest",
  "name": "100 Degrees Chinese Restaurant",
  "outcode": "CF37",
  "postcode": "1SN",
  "rating": 5,
  "type_of_food": "Chinese"
},
{
  "_id": {
    "$oid": "55f14312c7447c3da7051b32"
  },
  "URL": "http://www.just-eat.co.uk/restaurants-100menu-wn1/menu",
  "address": "50 Wallgate",
  "address line 2": "Wigan",
  "name": "100 Menu",
  "outcode": "WN1",
  "postcode": "1JU",
  "rating": 5,
  "type_of_food": "Chinese"
},
{
  "_id": {
    "$oid": "55f14312c7447c3da7051b35"
  },
  "URL": "http://www.just-eat.co.uk/restaurants-113-fish-bar-wallasey/menu",
  "address": "113 Poulton Road",
  "address line 2": "Merseyside",
  "name": "113 Fish Bar",
  "outcode": "CH44",
  "postcode": "9DE",
  "rating": 5.5,
  "type_of_food": "Chinese"
},
{
  "_id": {
    "$oid": "55f14312c7447c3da7051b38"
  },
  "URL": "http://www.just-eat.co.uk/restaurants-168chinese-ls18/menu",
  "address": "17 Alexandra Road",
  "address line 2": "West Yorkshire",
  "name": "168 Chinese & Cantonese Takeaway",
  "outcode": "LS18",
  "postcode": "4HE",
  "rating": 5.5,
  "type_of_food": "Chinese"
},
{
  "_id": {
    "$oid": "55f14312c7447c3da7051b39"
  },
  "URL": "http://www.just-eat.co.uk/restaurants-1awok-pa7/menu",
  "address": "Unit 2 30 Greenock Road",
  "address line 2": "Bishopton",
  "name": "1A Wok",
  "outcode": "PA7",
  "postcode": "5JN",
  "rating": 5,
  "type_of_food": "Chinese"
},
{
  "_id": {
    "$oid": "55f14312c7447c3da7051b55"
  },
  "URL": "http://www.just-eat.co.uk/restaurants-328chineseonline-cf81/menu",
  "address": "2-4 Commercial Street",
  "address line 2": "Aberbargoed",
  "name": "328 Chinese Online",
  "outcode": "CF81",
  "postcode": "9BW",
  "rating": 5,
  "type_of_food": "Chinese"
},
{
  "_id": {
    "$oid": "55f14312c7447c3da7051b56"
  },
  "URL": "http://www.just-eat.co.uk/restaurants-333-Chinese-FY4/menu",
  "address": "276 Waterloo Road",
  "address line 2": "Blackpool",
  "name": "333 Chinese Takeaway",
  "outcode": "FY4",
  "postcode": "3AF",
  "rating": 5,
  "type_of_food": "Chinese"
},
{
  "_id": {
    "$oid": "55f14312c7447c3da7051b57"
  },
  "URL": "http://www.just-eat.co.uk/restaurants-333Chinese-G13/menu",
  "address": "1550 Great Western Road",
  "address line 2": "Glasgow",
  "name": "333 Chinese Takeaway",
  "outcode": "G13",
  "postcode": "1HJ",
  "rating": 5,
  "type_of_food": "Chinese"
},
{
  "_id": {
    "$oid": "55f14312c7447c3da7051b58"
  },
  "URL": "http://www.just-eat.co.uk/restaurants-333Chinese-M11/menu",
  "address": "1276 Ashton Old Road",
  "address line 2": "Manchester",
  "name": "333 Chinese Takeaway1",
  "outcode": "M11",
  "postcode": "1JJ",
  "rating": 4.5,
  "type_of_food": "Chinese"
},
{
  "_id": {
    "$oid": "55f14312c7447c3da7051b59"
  },
  "URL": "http://www.just-eat.co.uk/restaurants-350wok-ws10/menu",
  "address": "136A Crankhall Lane",
  "address line 2": "Wednesbury",
  "name": "350 Wok",
  "outcode": "WS10",
  "postcode": "0ED",
  "rating": 5.5,
  "type_of_food": "Chinese"
},
{
  "_id": {
    "$oid": "55f14312c7447c3da7051b5a"
  },
  "URL": "http://www.just-eat.co.uk/restaurants-350wok-ws10/menu",
  "address": "136A Crankhall Lane",
  "address line 2": "Wednesbury",
  "name": "350 Wok",
  "outcode": "WS10",
  "postcode": "0ED",
  "rating": 5.5,
  "type_of_food": "Chinese"
},
{
  "_id": {
    "$oid": "55f14312c7447c3da7051b5b"
  },
  "URL": "http://www.just-eat.co.uk/restaurants-350wok-ws10/menu",
  "address": "136A Crankhall Lane",
  "address line 2": "Wednesbury",
  "name": "350 Wok",
  "outcode": "WS10",
  "postcode": "0ED",
  "rating": 5.5,
  "type_of_food": "Chinese"
},
{
  "_id": {
    "$oid": "55f14312c7447c3da7051b5d"
  },
  "URL": "http://www.just-eat.co.uk/restaurants-4inlove-pe30/menu",
  "address": "10-12 Railway Road",
  "address line 2": "Norfolk",
  "name": "4 in Love",
  "outcode": "PE30",
  "postcode": "1NE",
  "rating": 5.5,
  "type_of_food": "Chinese"
},
{
  "_id": {
    "$oid": "55f14312c7447c3da7051b63"
  },
  "URL": "http://www.just-eat.co.uk/restaurants-5-star-chinese-archway/menu",
  "address": "362 Hornsey Road",
  "address line 2": "London",
  "name": "5 Star Chinese",
  "outcode": "N19",
  "postcode": "4HD",
  "rating": 5,
  "type_of_food": "Chinese"
},
{
  "_id": {
    "$oid": "55f14312c7447c3da7051b64"
  },
  "URL": "http://www.just-eat.co.uk/restaurants-5-star-chinese-archway/menu",
  "address": "362 Hornsey Road",
  "address line 2": "London",
  "name": "5 Star Chinese",
  "outcode": "N19",
  "postcode": "4HD",
  "rating": 5,
  "type_of_food": "Chinese"
},
{
  "_id": {
    "$oid": "55f14312c7447c3da7051b72"
  },
  "URL": "http://www.just-eat.co.uk/restaurants-57-orient-takeawayPR8/menu",
  "address": "81 Upper Aughton Road",
  "address line 2": "Southport",
  "name": "57 Orient Takeaway",
  "outcode": "PR8",
  "postcode": "5ND",
  "rating": 4.5,
  "type_of_food": "Chinese"
},
{
  "_id": {
    "$oid": "55f14312c7447c3da7051b75"
  },
  "URL": "http://www.just-eat.co.uk/restaurants-7andone-bt53/menu",
  "address": "3 Charles Street",
  "address line 2": "County Antrim",
  "name": "7 & One",
  "outcode": "BT53",
  "postcode": "6DX",
  "rating": 5.5,
  "type_of_food": "Chinese"
},
{
  "_id": {
    "$oid": "55f14312c7447c3da7051b7f"
  },
  "URL": "http://www.just-eat.co.uk/restaurants-88-chinese-millbrook/menu",
  "address": "44 London Road",
  "address line 2": "Southampton",
  "name": "88 Chinese",
  "outcode": "SO15",
  "postcode": "2AH",
  "rating": 5,
  "type_of_food": "Chinese"
},
{
  "_id": {
    "$oid": "55f14312c7447c3da7051b80"
  },
  "URL": "http://www.just-eat.co.uk/restaurants-88noodlebar-hd1/menu",
  "address": "15 Cross Church Street",
  "address line 2": "Huddersfield",
  "name": "88 Noodle Bar",
  "outcode": "HD1",
  "postcode": "2PY",
  "rating": 4,
  "type_of_food": "Chinese"
},
{
  "_id": {
    "$oid": "55f14312c7447c3da7051b81"
  },
  "URL": "http://www.just-eat.co.uk/restaurants-888chinese-so23/menu",
  "address": "77 North Walls",
  "address line 2": "Winchester",
  "name": "888 Chinese Takeaway",
  "outcode": "SO23",
  "postcode": "8DA",
  "rating": 5,
  "type_of_food": "Chinese"
},
{
  "_id": {
    "$oid": "55f14312c7447c3da7051b82"
  },
  "URL": "http://www.just-eat.co.uk/restaurants-888tripleeight-bh9/menu",
  "address": "888 Wimborne Road",
  "address line 2": "Bournemouth",
  "name": "888 Triple Eight",
  "outcode": "BH9",
  "postcode": "2DR",
  "rating": 5,
  "type_of_food": "Chinese"
},
{
  "_id": {
    "$oid": "55f14312c7447c3da7051b85"
  },
  "URL": "http://www.just-eat.co.uk/restaurants-9thkitchen-b26/menu",
  "address": "397 Sheldon Heath Road",
  "address line 2": "Sheldon",
  "name": "9th Kitchen",
  "outcode": "B26",
  "postcode": "2UB",
  "rating": 5,
  "type_of_food": "Chinese"
},
{
  "_id": {
    "$oid": "55f14312c7447c3da7051b86"
  },
  "URL": "http://www.just-eat.co.uk/restaurants-A-G-Kitchen-M40/menu",
  "address": "267 Nuthurst Road",
  "address line 2": "Manchester",
  "name": "A & G Kitchen",
  "outcode": "M40",
  "postcode": "3PU",
  "rating": 5,
  "type_of_food": "Chinese"
},
{
  "_id": {
    "$oid": "55f14312c7447c3da7051ba8"
  },
  "URL": "http://www.just-eat.co.uk/restaurants-a1wok-g72/menu",
  "address": "Unit 2c Hallside Court Cambuslang",
  "address line 2": "Glasgow",
  "name": "A1 Wok",
  "outcode": "G72",
  "postcode": "7FB",
  "rating": 4.5,
  "type_of_food": "Chinese"
},
{
  "_id": {
    "$oid": "55f14312c7447c3da7051be5"
  },
  "URL": "http://www.just-eat.co.uk/restaurants-aberavon-packed-meals-port-talbot/menu",
  "address": "21 Ysguthan Road",
  "address line 2": "Port Talbot",
  "name": "Aberavon Packed Meals",
  "outcode": "SA12",
  "postcode": "6NB",
  "rating": 5,
  "type_of_food": "Chinese"
},
{
  "_id": {
    "$oid": "55f14312c7447c3da7051be8"
  },
  "URL": "http://www.just-eat.co.uk/restaurants-aberdeen-shanghai-ab11/menu",
  "address": "1-3 Portland Street",
  "address line 2": "Aberdeen",
  "name": "Aberdeen Shanghai Takeaway",
  "outcode": "AB11",
  "postcode": "6LN",
  "rating": 5,
  "type_of_food": "Chinese"
},
{
  "_id": {
    "$oid": "55f14312c7447c3da7051c0c"
  },
  "URL": "http://www.just-eat.co.uk/restaurants-acha-halal-chinese-cuisine-birmingham/menu",
  "address": "7 Heybarnes Road",
  "address line 2": "Birmingham",
  "name": "Acha Halal Chinese Cuisine",
  "outcode": "B10",
  "postcode": "9HR",
  "rating": 5,
  "type_of_food": "Chinese"
},
{
  "_id": {
    "$oid": "55f14312c7447c3da7051c0e"
  },
  "URL": "http://www.just-eat.co.uk/restaurants-ackies-wa9/menu",
  "address": "113 Leach Lane",
  "address line 2": "Merseyside",
  "name": "Ackie's",
  "outcode": "WA9",
  "postcode": "4PS",
  "rating": 5,
  "type_of_food": "Chinese"
},
{
  "_id": {
    "$oid": "55f14312c7447c3da7051c5c"
  },
  "URL": "http://www.just-eat.co.uk/restaurants-af88-stockport/menu",
  "address": "63 Middle Hill Gate",
  "address line 2": "Stockport",
  "name": "AF88",
  "outcode": "SK1",
  "postcode": "3EH",
  "rating": 4.5,
  "type_of_food": "Chinese"
},
{
  "_id": {
    "$oid": "55f14312c7447c3da7051c78"
  },
  "URL": "http://www.just-eat.co.uk/restaurants-aftertastesw6/menu",
  "address": "97 Newington Butts",
  "address line 2": "Elephant & Castle",
  "name": "After Taste",
  "outcode": "SE1",
  "postcode": "6SF",
  "rating": 5,
  "type_of_food": "Chinese"
},
{
  "_id": {
    "$oid": "55f14312c7447c3da7051c79"
  },
  "URL": "http://www.just-eat.co.uk/restaurants-aftertastesw6/menu",
  "address": "97 Newington Butts",
  "address line 2": "Elephant & Castle",
  "name": "After Taste",
  "outcode": "SE1",
  "postcode": "6SF",
  "rating": 5,
  "type_of_food": "Chinese"
},
{
  "_id": {
    "$oid": "55f14312c7447c3da7051c7a"
  },
  "URL": "http://www.just-eat.co.uk/restaurants-aftertastesw6/menu",
  "address": "97 Newington Butts",
  "address line 2": "Elephant & Castle",
  "name": "After Taste",
  "outcode": "SE1",
  "postcode": "6SF",
  "rating": 5,
  "type_of_food": "Chinese"
},
{
  "_id": {
    "$oid": "55f14312c7447c3da7051c99"
  },
  "URL": "http://www.just-eat.co.uk/restaurants-ai-wok/menu",
  "address": "24 Kyle View",
  "address line 2": "Nottingham",
  "name": "Ai Wok",
  "outcode": "NG5",
  "postcode": "9EL",
  "rating": 5,
  "type_of_food": "Chinese"
},
{
  "_id": {
    "$oid": "55f14312c7447c3da7051dd3"
  },
  "URL": "http://www.just-eat.co.uk/restaurants-allwelcome-sw11/menu",
  "address": "152 Battersea Bridge Road",
  "address line 2": "London",
  "name": "All Welcome",
  "outcode": "SW11",
  "postcode": "3AW",
  "rating": 4.5,
  "type_of_food": "Chinese"
},
{
  "_id": {
    "$oid": "55f14312c7447c3da7051e33"
  },
  "URL": "http://www.just-eat.co.uk/restaurants-amazing-ls6/menu",
  "address": "49 Queens Road",
  "address line 2": "Leeds",
  "name": "Amazing",
  "outcode": "LS6",
  "postcode": "1HY",
  "rating": 4,
  "type_of_food": "Chinese"
},
{
  "_id": {
    "$oid": "55f14312c7447c3da7051e39"
  },
  "URL": "http://www.just-eat.co.uk/restaurants-Amber-G12/menu",
  "address": "130-132 Byres Road",
  "address line 2": "Glasgow",
  "name": "Amber",
  "outcode": "G12",
  "postcode": "8TD",
  "rating": 4.5,
  "type_of_food": "Chinese"
},
{
  "_id": {
    "$oid": "55f14312c7447c3da7051e3a"
  },
  "URL": "http://www.just-eat.co.uk/restaurants-amber-cuisine-johnstone/menu",
  "address": "143 Main Road",
  "address line 2": "Elderslie",
  "name": "Amber Cuisine",
  "outcode": "PA5",
  "postcode": "9ES",
  "rating": 5,
  "type_of_food": "Chinese"
},
{
  "_id": {
    "$oid": "55f14312c7447c3da7051eb9"
  },
  "URL": "http://www.just-eat.co.uk/restaurants-amysfishandchips-s73/menu",
  "address": "101 School Street Darfield",
  "address line 2": "South Yorkshire",
  "name": "Amy's Fish & Chips & Chinese Takeaway",
  "outcode": "S73",
  "postcode": "9EZ",
  "rating": 5,
  "type_of_food": "Chinese"
},
{
  "_id": {
    "$oid": "55f14312c7447c3da7051eda"
  },
  "URL": "http://www.just-eat.co.uk/restaurants-andystakeaway-pr9/menu",
  "address": "75 Churchill Avenue",
  "address line 2": "Merseyside",
  "name": "Andy's Takeaway",
  "outcode": "PR9",
  "postcode": "9PX",
  "rating": 5.5,
  "type_of_food": "Chinese"
},
{
  "_id": {
    "$oid": "55f14312c7447c3da7051ee0"
  },
  "URL": "http://www.just-eat.co.uk/restaurants-angel-express-edge-hill/menu",
  "address": "203 Kensington",
  "address line 2": "Merseyside",
  "name": "Angel Express",
  "outcode": "L7",
  "postcode": "2RF",
  "rating": 5,
  "type_of_food": "Chinese"
},
{
  "_id": {
    "$oid": "55f14312c7447c3da7051ee1"
  },
  "URL": "http://www.just-eat.co.uk/restaurants-angel-express-edge-hill/menu",
  "address": "203 Kensington",
  "address line 2": "Merseyside",
  "name": "Angel Express",
  "outcode": "L7",
  "postcode": "2RF",
  "rating": 5,
  "type_of_food": "Chinese"
},
{
  "_id": {
    "$oid": "55f14312c7447c3da7051ee4"
  },
  "URL": "http://www.just-eat.co.uk/restaurants-angelgardenchinese-b68/menu",
  "address": "136 Brook Road",
  "address line 2": "Birmingham",
  "name": "Angel Garden Chinese",
  "outcode": "B68",
  "postcode": "8AE",
  "rating": 5,
  "type_of_food": "Chinese"
},
{
  "_id": {
    "$oid": "55f14312c7447c3da7051ee5"
  },
  "URL": "http://www.just-eat.co.uk/restaurants-angelgardenchinese-b68/menu",
  "address": "136 Brook Road",
  "address line 2": "Birmingham",
  "name": "Angel Garden Chinese",
  "outcode": "B68",
  "postcode": "8AE",
  "rating": 5,
  "type_of_food": "Chinese"
},
{
  "_id": {
    "$oid": "55f14312c7447c3da7051f12"
  },
  "URL": "http://www.just-eat.co.uk/restaurants-anise-regents-park/menu",
  "address": "1 Kent House",
  "address line 2": "London",
  "name": "Anise",
  "outcode": "NW1",
  "postcode": "8ET",
  "rating": 5.5,
  "type_of_food": "Chinese"
},
{
  "_id": {
    "$oid": "55f14312c7447c3da7051f23"
  },
  "URL": "http://www.just-eat.co.uk/restaurants-annas-chinese-eh4/menu",
  "address": "28 Duart Crescent",
  "address line 2": "Edinburgh",
  "name": "Anna's Chinese Takeaway",
  "outcode": "EH4",
  "postcode": "7JP",
  "rating": 5,
  "type_of_food": "Chinese"
},
{
  "_id": {
    "$oid": "55f14312c7447c3da7051f67"
  },
  "URL": "http://www.just-eat.co.uk/restaurants-archchinese-l1/menu",
  "address": "45-49 Berry Street",
  "address line 2": "Liverpool",
  "name": "Arch Chinese",
  "outcode": "L1",
  "postcode": "9DF",
  "rating": 5,
  "type_of_food": "Chinese"
},
{
  "_id": {
    "$oid": "55f14312c7447c3da7051f68"
  },
  "URL": "http://www.just-eat.co.uk/restaurants-archchinese-l1/menu",
  "address": "45-49 Berry Street",
  "address line 2": "Liverpool",
  "name": "Arch Chinese",
  "outcode": "L1",
  "postcode": "9DF",
  "rating": 5,
  "type_of_food": "Chinese"
},
{
  "_id": {
    "$oid": "55f14312c7447c3da7051f6d"
  },
  "URL": "http://www.just-eat.co.uk/restaurants-arden-oak-b26/menu",
  "address": "20 Arden Oak Road",
  "address line 2": "Sheldon",
  "name": "Arden Oak",
  "outcode": "B26",
  "postcode": "3LX",
  "rating": 5.5,
  "type_of_food": "Chinese"
},
{
  "_id": {
    "$oid": "55f14312c7447c3da7051f7d"
  },
  "URL": "http://www.just-eat.co.uk/restaurants-arielopenkitchen/menu",
  "address": "72 Pall Mall",
  "address line 2": "Chorley",
  "name": "Ariel Open Kitchen",
  "outcode": "PR7",
  "postcode": "2LE",
  "rating": 5,
  "type_of_food": "Chinese"
},
{
  "_id": {
    "$oid": "55f14312c7447c3da7051f80"
  },
  "URL": "http://www.just-eat.co.uk/restaurants-arirang-se11/menu",
  "address": "5 Cricketers Court",
  "address line 2": "London",
  "name": "Arirang",
  "outcode": "SE11",
  "postcode": "4RJ",
  "rating": 4,
  "type_of_food": "Chinese"
},
{
  "_id": {
    "$oid": "55f14312c7447c3da7051f81"
  },
  "URL": "http://www.just-eat.co.uk/restaurants-arirang-se11/menu",
  "address": "5 Cricketers Court",
  "address line 2": "London",
  "name": "Arirang",
  "outcode": "SE11",
  "postcode": "4RJ",
  "rating": 4,
  "type_of_food": "Chinese"
},
{
  "_id": {
    "$oid": "55f14312c7447c3da7051f82"
  },
  "URL": "http://www.just-eat.co.uk/restaurants-arirang-se11/menu",
  "address": "5 Cricketers Court",
  "address line 2": "London",
  "name": "Arirang",
  "outcode": "SE11",
  "postcode": "4RJ",
  "rating": 4,
  "type_of_food": "Chinese"
},
{
  "_id": {
    "$oid": "55f14312c7447c3da7051f83"
  },
  "URL": "http://www.just-eat.co.uk/restaurants-arirang-se11/menu",
  "address": "5 Cricketers Court",
  "address line 2": "London",
  "name": "Arirang",
  "outcode": "SE11",
  "postcode": "4RJ",
  "rating": 4,
  "type_of_food": "Chinese"
},
{
  "_id": {
    "$oid": "55f14312c7447c3da7051f84"
  },
  "URL": "http://www.just-eat.co.uk/restaurants-arirang-se11/menu",
  "address": "5 Cricketers Court",
  "address line 2": "London",
  "name": "Arirang",
  "outcode": "SE11",
  "postcode": "4RJ",
  "rating": 4,
  "type_of_food": "Chinese"
},
{
  "_id": {
    "$oid": "55f14312c7447c3da7051f85"
  },
  "URL": "http://www.just-eat.co.uk/restaurants-arirang-se11/menu",
  "address": "5 Cricketers Court",
  "address line 2": "London",
  "name": "Arirang",
  "outcode": "SE11",
  "postcode": "4RJ",
  "rating": 4,
  "type_of_food": "Chinese"
},
{
  "_id": {
    "$oid": "55f14312c7447c3da7051fa2"
  },
  "URL": "http://www.just-eat.co.uk/restaurants-aromachinese-b66/menu",
  "address": "40 High Street",
  "address line 2": "Smethwick",
  "name": "Aroma Chinese",
  "outcode": "B66",
  "postcode": "1DT",
  "rating": 5,
  "type_of_food": "Chinese"
},
{
  "_id": {
    "$oid": "55f14312c7447c3da7051fa5"
  },
  "URL": "http://www.just-eat.co.uk/restaurants-aromahouse-ss2/menu",
  "address": "303 Sutton Road",
  "address line 2": "Essex",
  "name": "Aroma House",
  "outcode": "SS2",
  "postcode": "5PF",
  "rating": 5.5,
  "type_of_food": "Chinese"
},
{
  "_id": {
    "$oid": "55f14312c7447c3da7051fb7"
  },
  "URL": "http://www.just-eat.co.uk/restaurants-aromas-bs8/menu",
  "address": "152 Whiteladies Road",
  "address line 2": "Bristol",
  "name": "Aromas",
  "outcode": "BS8",
  "postcode": "2XZ",
  "rating": 5,
  "type_of_food": "Chinese"
},
{
  "_id": {
    "$oid": "55f14312c7447c3da7051fc0"
  },
  "URL": "http://www.just-eat.co.uk/restaurants-arsenal-fishandfood-n5/menu",
  "address": "112 Highbury Park",
  "address line 2": "London",
  "name": "Arsenal Chinese Food & Fish Bar",
  "outcode": "N5",
  "postcode": "2XE",
  "rating": 4.5,
  "type_of_food": "Chinese"
},
{
  "_id": {
    "$oid": "55f14312c7447c3da7051fc1"
  },
  "URL": "http://www.just-eat.co.uk/restaurants-arsenal-fishandfood-n5/menu",
  "address": "112 Highbury Park",
  "address line 2": "London",
  "name": "Arsenal Chinese Food & Fish Bar",
  "outcode": "N5",
  "postcode": "2XE",
  "rating": 4.5,
  "type_of_food": "Chinese"
},
{
  "_id": {
    "$oid": "55f14312c7447c3da7051fca"
  },
  "URL": "http://www.just-eat.co.uk/restaurants-arthurschinacity/menu",
  "address": "182 Desborough Road",
  "address line 2": "High Wycombe",
  "name": "Arthur's China City",
  "outcode": "HP11",
  "postcode": "2QA",
  "rating": 4.5,
  "type_of_food": "Chinese"
},
{
  "_id": {
    "$oid": "55f14312c7447c3da7051fff"
  },
  "URL": "http://www.just-eat.co.uk/restaurants-asiaasia-so53/menu",
  "address": "4 Bournemouth Road",
  "address line 2": "Eastleigh",
  "name": "Asia Asia",
  "outcode": "SO53",
  "postcode": "3DB",
  "rating": 3.5,
  "type_of_food": "Chinese"
},
{
  "_id": {
    "$oid": "55f14312c7447c3da7052000"
  },
  "URL": "http://www.just-eat.co.uk/restaurants-asiabagus-fy3/menu",
  "address": "4 Mowbray Drive",
  "address line 2": "Blackpool",
  "name": "Asia Bagus",
  "outcode": "FY3",
  "postcode": "7JR",
  "rating": 5.5,
  "type_of_food": "Chinese"
},
{
  "_id": {
    "$oid": "55f14312c7447c3da7052001"
  },
  "URL": "http://www.just-eat.co.uk/restaurants-asiachannel-bs8/menu",
  "address": "259 Hotwell Road Hotwell",
  "address line 2": "Bristol",
  "name": "Asia Channel",
  "outcode": "BS8",
  "postcode": "4SF",
  "rating": 5,
  "type_of_food": "Chinese"
},
{
  "_id": {
    "$oid": "55f14312c7447c3da7052002"
  },
  "URL": "http://www.just-eat.co.uk/restaurants-asiachinese-g14/menu",
  "address": "19 Kelso Street",
  "address line 2": "Glasgow",
  "name": "Asia Chinese",
  "outcode": "G14",
  "postcode": "0LB",
  "rating": 4.5,
  "type_of_food": "Chinese"
},
{
  "_id": {
    "$oid": "55f14312c7447c3da7052003"
  },
  "URL": "http://www.just-eat.co.uk/restaurants-asiadelight-ip3/menu",
  "address": "223 Rosehill Road",
  "address line 2": "Ipswich",
  "name": "Asia Delight",
  "outcode": "IP3",
  "postcode": "8HF",
  "rating": 5,
  "type_of_food": "Chinese"
},
{
  "_id": {
    "$oid": "55f14312c7447c3da7052004"
  },
  "URL": "http://www.just-eat.co.uk/restaurants-asiagardenbs3/menu",
  "address": "29 Oxford Street",
  "address line 2": "Bristol",
  "name": "Asia Garden",
  "outcode": "BS3",
  "postcode": "4RJ",
  "rating": 5,
  "type_of_food": "Chinese"
},
{
  "_id": {
    "$oid": "55f14312c7447c3da705200b"
  },
  "URL": "http://www.just-eat.co.uk/restaurants-asiawokso18/menu",
  "address": "13 West End Road",
  "address line 2": "Southampton",
  "name": "Asia Wok",
  "outcode": "SO18",
  "postcode": "6TE",
  "rating": 4.5,
  "type_of_food": "Chinese"
},
{
  "_id": {
    "$oid": "55f14312c7447c3da705200f"
  },
  "URL": "http://www.just-eat.co.uk/restaurants-asianfusion-g72/menu",
  "address": "202 Main Street",
  "address line 2": "Cambuslang",
  "name": "Asian Fusion",
  "outcode": "G72",
  "postcode": "7EN",
  "rating": 5.5,
  "type_of_food": "Chinese"
},
{
  "_id": {
    "$oid": "55f14312c7447c3da7052012"
  },
  "URL": "http://www.just-eat.co.uk/restaurants-asiankitchen-bt36/menu",
  "address": "290 Antrim Road Glengormley",
  "address line 2": "Belfast",
  "name": "Asian Kitchen",
  "outcode": "BT36",
  "postcode": "7QT",
  "rating": 5.5,
  "type_of_food": "Chinese"
},
{
  "_id": {
    "$oid": "55f14312c7447c3da7052017"
  },
  "URL": "http://www.just-eat.co.uk/restaurants-asianstation-ss2/menu",
  "address": "10 Earls Hall Parade",
  "address line 2": "Essex",
  "name": "Asian Station",
  "outcode": "SS2",
  "postcode": "6NW",
  "rating": 5.5,
  "type_of_food": "Chinese"
},
{
  "_id": {
    "$oid": "55f14312c7447c3da7052036"
  },
  "URL": "http://www.just-eat.co.uk/restaurants-atwanda-se24/menu",
  "address": "24 Milkwood Road",
  "address line 2": "London",
  "name": "At Wan Da",
  "outcode": "SE24",
  "postcode": "0HH",
  "rating": 4.5,
  "type_of_food": "Chinese"
},
{
  "_id": {
    "$oid": "55f14312c7447c3da7052037"
  },
  "URL": "http://www.just-eat.co.uk/restaurants-atwanda-se24/menu",
  "address": "24 Milkwood Road",
  "address line 2": "London",
  "name": "At Wan Da",
  "outcode": "SE24",
  "postcode": "0HH",
  "rating": 4.5,
  "type_of_food": "Chinese"
},
{
  "_id": {
    "$oid": "55f14312c7447c3da7052038"
  },
  "URL": "http://www.just-eat.co.uk/restaurants-at28-bt18/menu",
  "address": "45 High Street",
  "address line 2": "Holwood",
  "name": "At28",
  "outcode": "BT18",
  "postcode": "9AB",
  "rating": 5,
  "type_of_food": "Chinese"
},
{
  "_id": {
    "$oid": "55f14312c7447c3da7052060"
  },
  "URL": "http://www.just-eat.co.uk/restaurants-augustmoon/menu",
  "address": "510 Old London Road",
  "address line 2": "Hastings",
  "name": "August Moon",
  "outcode": "TN35",
  "postcode": "5BL",
  "rating": 4.5,
  "type_of_food": "Chinese"
},
{
  "_id": {
    "$oid": "55f14313c7447c3da7052065"
  },
  "URL": "http://www.just-eat.co.uk/restaurants-auntie-mays-chinese-takeaway-beckenham/menu",
  "address": "305 Upper Elmers Road",
  "address line 2": "Beckenham",
  "name": "Auntie May's Chinese Takeaway",
  "outcode": "BR3",
  "postcode": "3QP",
  "rating": 5,
  "type_of_food": "Chinese"
},
{
  "_id": {
    "$oid": "55f14313c7447c3da7052066"
  },
  "URL": "http://www.just-eat.co.uk/restaurants-auntie-mays-chinese-takeaway-beckenham/menu",
  "address": "305 Upper Elmers Road",
  "address line 2": "Beckenham",
  "name": "Auntie May's Chinese Takeaway",
  "outcode": "BR3",
  "postcode": "3QP",
  "rating": 5,
  "type_of_food": "Chinese"
},
{
  "_id": {
    "$oid": "55f14313c7447c3da70520b9"
  },
  "URL": "http://www.just-eat.co.uk/restaurants-bafuchinese-ct11/menu",
  "address": "8 Boundary Road",
  "address line 2": "Ramsgate",
  "name": "Ba Fu Chinese",
  "outcode": "CT11",
  "postcode": "7NE",
  "rating": 4.5,
  "type_of_food": "Chinese"
},
{
  "_id": {
    "$oid": "55f14313c7447c3da7052190"
  },
  "URL": "http://www.just-eat.co.uk/restaurants-bamboochinesebh22/menu",
  "address": "31a Glenmoor Road",
  "address line 2": "Ferndown",
  "name": "Bamboo Chinese Takeaway",
  "outcode": "BH22",
  "postcode": "8QE",
  "rating": 5,
  "type_of_food": "Chinese"
},
{
  "_id": {
    "$oid": "55f14313c7447c3da7052191"
  },
  "URL": "http://www.just-eat.co.uk/restaurants-bamboo-express-dd4/menu",
  "address": "145 Pitkerro Road",
  "address line 2": "Dundee",
  "name": "Bamboo Express",
  "outcode": "DD4",
  "postcode": "8EB",
  "rating": 5,
  "type_of_food": "Chinese"
},
{
  "_id": {
    "$oid": "55f14313c7447c3da7052192"
  },
  "URL": "http://www.just-eat.co.uk/restaurants-bamboogarden-se4/menu",
  "address": "260 Brockley Road",
  "address line 2": "London",
  "name": "Bamboo Garden",
  "outcode": "SE4",
  "postcode": "2SF",
  "rating": 4.5,
  "type_of_food": "Chinese"
},
{
  "_id": {
    "$oid": "55f14313c7447c3da7052193"
  },
  "URL": "http://www.just-eat.co.uk/restaurants-bamoochinese-se12/menu",
  "address": "124 Burnt Ash Road",
  "address line 2": "London",
  "name": "Bamboo Garden",
  "outcode": "SE12",
  "postcode": "8PU",
  "rating": 5,
  "type_of_food": "Chinese"
},
{
  "_id": {
    "$oid": "55f14313c7447c3da7052194"
  },
  "URL": "http://www.just-eat.co.uk/restaurants-bamboogarden-sr8/menu",
  "address": "15 Warren Square",
  "address line 2": "Peterlee",
  "name": "Bamboo Garden",
  "outcode": "SR8",
  "postcode": "4JE",
  "rating": 5,
  "type_of_food": "Chinese"
},
{
  "_id": {
    "$oid": "55f14313c7447c3da7052195"
  },
  "URL": "http://www.just-eat.co.uk/restaurants-bamboogardenwa9/menu",
  "address": "8 Nutgrove Road",
  "address line 2": "St Helens",
  "name": "Bamboo Garden",
  "outcode": "WA9",
  "postcode": "5PL",
  "rating": 5,
  "type_of_food": "Chinese"
},
{
  "_id": {
    "$oid": "55f14313c7447c3da7052196"
  },
  "URL": "http://www.just-eat.co.uk/restaurants-bamoochinese-se12/menu",
  "address": "124 Burnt Ash Road",
  "address line 2": "London",
  "name": "Bamboo Garden",
  "outcode": "SE12",
  "postcode": "8PU",
  "rating": 5,
  "type_of_food": "Chinese"
},
{
  "_id": {
    "$oid": "55f14313c7447c3da7052197"
  },
  "URL": "http://www.just-eat.co.uk/restaurants-bamboogarden-sr8/menu",
  "address": "15 Warren Square",
  "address line 2": "Peterlee",
  "name": "Bamboo Garden",
  "outcode": "SR8",
  "postcode": "4JE",
  "rating": 5,
  "type_of_food": "Chinese"
},
{
  "_id": {
    "$oid": "55f14313c7447c3da7052198"
  },
  "URL": "http://www.just-eat.co.uk/restaurants-bamboogardenwa9/menu",
  "address": "8 Nutgrove Road",
  "address line 2": "St Helens",
  "name": "Bamboo Garden",
  "outcode": "WA9",
  "postcode": "5PL",
  "rating": 5,
  "type_of_food": "Chinese"
},
{
  "_id": {
    "$oid": "55f14313c7447c3da7052199"
  },
  "URL": "http://www.just-eat.co.uk/restaurants-bamboogarden-bt49/menu",
  "address": "69 Main Street",
  "address line 2": "Ballykelly",
  "name": "Bamboo Garden",
  "outcode": "BT49",
  "postcode": "9HS",
  "rating": 5.5,
  "type_of_food": "Chinese"
},
{
  "_id": {
    "$oid": "55f14313c7447c3da705219a"
  },
  "URL": "http://www.just-eat.co.uk/restaurants-bamboo-garden-chinese-takeaway-manchester/menu",
  "address": "18 Broadway",
  "address line 2": "Manchester",
  "name": "Bamboo Garden Chinese Takeaway",
  "outcode": "M40",
  "postcode": "3LN",
  "rating": 3.5,
  "type_of_food": "Chinese"
},
{
  "_id": {
    "$oid": "55f14313c7447c3da705219b"
  },
  "URL": "http://www.just-eat.co.uk/restaurants-bamboohouse-bt9/menu",
  "address": "449 Lisburn Road",
  "address line 2": "Belfast",
  "name": "Bamboo House",
  "outcode": "BT9",
  "postcode": "7EY",
  "rating": 4.5,
  "type_of_food": "Chinese"
},
{
  "_id": {
    "$oid": "55f14313c7447c3da705219c"
  },
  "URL": "http://www.just-eat.co.uk/restaurants-bamboohouse-rm12/menu",
  "address": "130 Upminster Road",
  "address line 2": "Essex",
  "name": "Bamboo House",
  "outcode": "RM12",
  "postcode": "6PL",
  "rating": 4.5,
  "type_of_food": "Chinese"
},
{
  "_id": {
    "$oid": "55f14313c7447c3da705219d"
  },
  "URL": "http://www.just-eat.co.uk/restaurants-bamboo-house-falmouth/menu",
  "address": "Quay Street",
  "address line 2": "Cornwall",
  "name": "Bamboo House",
  "outcode": "TR11",
  "postcode": "3HH",
  "rating": 4.5,
  "type_of_food": "Chinese"
},
{
  "_id": {
    "$oid": "55f14313c7447c3da70521a0"
  },
  "URL": "http://www.just-eat.co.uk/restaurants-bambu-m29/menu",
  "address": "128 Higher Green Lane",
  "address line 2": "Lancashire",
  "name": "Bambu",
  "outcode": "M29",
  "postcode": "7JB",
  "rating": 5.5,
  "type_of_food": "Chinese"
},
{
  "_id": {
    "$oid": "55f14313c7447c3da70521a1"
  },
  "URL": "http://www.just-eat.co.uk/restaurants-bambu-m29/menu",
  "address": "128 Higher Green Lane",
  "address line 2": "Lancashire",
  "name": "Bambu",
  "outcode": "M29",
  "postcode": "7JB",
  "rating": 5.5,
  "type_of_food": "Chinese"
},
{
  "_id": {
    "$oid": "55f14313c7447c3da70521a4"
  },
  "URL": "http://www.just-eat.co.uk/restaurants-bananaleaf-hp1/menu",
  "address": "127-129 Marlowes",
  "address line 2": "Hemel hempsted",
  "name": "Banana Leaf",
  "outcode": "HP1",
  "postcode": "1BB",
  "rating": 5,
  "type_of_food": "Chinese"
},
{
  "_id": {
    "$oid": "55f14313c7447c3da70521cf"
  },
  "URL": "http://www.just-eat.co.uk/restaurants-bao-bao-pr1/menu",
  "address": "39 Plungington Road",
  "address line 2": "Preston",
  "name": "Bao Bao Chinese Takeaway",
  "outcode": "PR1",
  "postcode": "7EP",
  "rating": 5,
  "type_of_food": "Chinese"
},
{
  "_id": {
    "$oid": "55f14313c7447c3da70521fc"
  },
  "URL": "http://www.just-eat.co.uk/restaurants-barnsleyhouse-s71/menu",
  "address": "347-349 Pontefract Road",
  "address line 2": "Barnsley",
  "name": "Barnsley House",
  "outcode": "S71",
  "postcode": "5HS",
  "rating": 4.5,
  "type_of_food": "Chinese"
},
{
  "_id": {
    "$oid": "55f14313c7447c3da7052201"
  },
  "URL": "http://www.just-eat.co.uk/restaurants-Barrow-takeawayLA14/menu",
  "address": "18 Bath Street",
  "address line 2": "Cumbria",
  "name": "Barrow Takeaway",
  "outcode": "LA14",
  "postcode": "1LZ",
  "rating": 5,
  "type_of_food": "Chinese"
},
{
  "_id": {
    "$oid": "55f14313c7447c3da7052209"
  },
  "URL": "http://www.just-eat.co.uk/restaurants-barton-oriental-m30/menu",
  "address": "82 Barton Road",
  "address line 2": "Eccles Manchester",
  "name": "Barton Oriental- Eccles",
  "outcode": "M30",
  "postcode": "7AE",
  "rating": 5,
  "type_of_food": "Chinese"
},
{
  "_id": {
    "$oid": "55f14313c7447c3da70522a6"
  },
  "URL": "http://www.just-eat.co.uk/restaurants-bedford-chinese-kitchen/menu",
  "address": "80 Midland Road",
  "address line 2": "Bedford",
  "name": "Bedford Chinese Kitchen",
  "outcode": "MK40",
  "postcode": "1QH",
  "rating": 5,
  "type_of_food": "Chinese"
},
{
  "_id": {
    "$oid": "55f14313c7447c3da70522b5"
  },
  "URL": "http://www.just-eat.co.uk/restaurants-bei-jing/menu",
  "address": "79 Great Stone Road",
  "address line 2": "Stretford",
  "name": "Bei Jing",
  "outcode": "M32",
  "postcode": "8GR",
  "rating": 5,
  "type_of_food": "Chinese"
},
{
  "_id": {
    "$oid": "55f14313c7447c3da70522b6"
  },
  "URL": "http://www.just-eat.co.uk/restaurants-beijingchef-sw15/menu",
  "address": "281 Putney Bridge Road",
  "address line 2": "London",
  "name": "Beijing Chef",
  "outcode": "SW15",
  "postcode": "2PT",
  "rating": 5,
  "type_of_food": "Chinese"
},
{
  "_id": {
    "$oid": "55f14313c7447c3da70522b7"
  },
  "URL": "http://www.just-eat.co.uk/restaurants-beijing-ls16/menu",
  "address": "479 Otley Road",
  "address line 2": "Leeds",
  "name": "Beijing",
  "outcode": "LS16",
  "postcode": "7NR",
  "rating": 4.5,
  "type_of_food": "Chinese"
},
{
  "_id": {
    "$oid": "55f14313c7447c3da70522b8"
  },
  "URL": "http://www.just-eat.co.uk/restaurants-beijingchef-sw15/menu",
  "address": "281 Putney Bridge Road",
  "address line 2": "London",
  "name": "Beijing Chef",
  "outcode": "SW15",
  "postcode": "2PT",
  "rating": 5,
  "type_of_food": "Chinese"
},
{
  "_id": {
    "$oid": "55f14313c7447c3da70522b9"
  },
  "URL": "http://www.just-eat.co.uk/restaurants-beijingchefchinesetakeaway-sn2/menu",
  "address": "119 Cricklade Road",
  "address line 2": "Swindon",
  "name": "Beijing Chef Chinese Takeaway",
  "outcode": "SN2",
  "postcode": "1AB",
  "rating": 5,
  "type_of_food": "Chinese"
},
{
  "_id": {
    "$oid": "55f14313c7447c3da70522ba"
  },
  "URL": "http://www.just-eat.co.uk/restaurants-beijingchinese/menu",
  "address": "103 Wokingham Road",
  "address line 2": "Wokingham",
  "name": "Beijing Chinese",
  "outcode": "RG45",
  "postcode": "6LH",
  "rating": 4,
  "type_of_food": "Chinese"
},
{
  "_id": {
    "$oid": "55f14313c7447c3da70522bb"
  },
  "URL": "http://www.just-eat.co.uk/restaurants-beijing-chinese-restaurant-lisnasharragh/menu",
  "address": "341 Albertbridge Road",
  "address line 2": "Belfast",
  "name": "Beijing Chinese Restaurant",
  "outcode": "BT5",
  "postcode": "4PY",
  "rating": 4,
  "type_of_food": "Chinese"
},
{
  "_id": {
    "$oid": "55f14313c7447c3da70522bc"
  },
  "URL": "http://www.just-eat.co.uk/restaurants-beijingcity-sl1/menu",
  "address": "23C Park Street",
  "address line 2": "Slough",
  "name": "Beijing City",
  "outcode": "SL1",
  "postcode": "1PS",
  "rating": 4.5,
  "type_of_food": "Chinese"
},
{
  "_id": {
    "$oid": "55f14313c7447c3da70522bd"
  },
  "URL": "http://www.just-eat.co.uk/restaurants-beijing-city-nd2/menu",
  "address": "44 Swain House Road",
  "address line 2": "Bradford",
  "name": "Beijing City",
  "outcode": "BD2",
  "postcode": "1JW",
  "rating": 5,
  "type_of_food": "Chinese"
},
{
  "_id": {
    "$oid": "55f14313c7447c3da70522be"
  },
  "URL": "http://www.just-eat.co.uk/restaurants-beijingcuisine-fk4/menu",
  "address": "18 High Street",
  "address line 2": "Stirlingshire",
  "name": "Beijing Cuisine",
  "outcode": "FK4",
  "postcode": "1DA",
  "rating": 5.5,
  "type_of_food": "Chinese"
},
{
  "_id": {
    "$oid": "55f14313c7447c3da70522bf"
  },
  "URL": "http://www.just-eat.co.uk/restaurants-beijingdragon-pe23/menu",
  "address": "24 Church Street",
  "address line 2": "Spillsby",
  "name": "Beijing Dragon",
  "outcode": "PE23",
  "postcode": "5EF",
  "rating": 4.5,
  "type_of_food": "Chinese"
},
{
  "_id": {
    "$oid": "55f14313c7447c3da70522c0"
  },
  "URL": "http://www.just-eat.co.uk/restaurants-beijingexpress-wf17/menu",
  "address": "51 Cross Bank Road",
  "address line 2": "Batley",
  "name": "Beijing Express",
  "outcode": "WF17",
  "postcode": "8PN",
  "rating": 5,
  "type_of_food": "Chinese"
},
{
  "_id": {
    "$oid": "55f14313c7447c3da70522c1"
  },
  "URL": "http://www.just-eat.co.uk/restaurants-beijingepress-bs3/menu",
  "address": "230 St. Johns Lane",
  "address line 2": "Bristol",
  "name": "Beijing Express",
  "outcode": "BS3",
  "postcode": "5AU",
  "rating": 5,
  "type_of_food": "Chinese"
},
{
  "_id": {
    "$oid": "55f14313c7447c3da70522c2"
  },
  "URL": "http://www.just-eat.co.uk/restaurants-beijing-express-ls12/menu",
  "address": "302 Armley Ridge Road",
  "address line 2": "Leeds",
  "name": "Beijing Express",
  "outcode": "LS12",
  "postcode": "2RD",
  "rating": 5,
  "type_of_food": "Chinese"
},
{
  "_id": {
    "$oid": "55f14313c7447c3da70522c3"
  },
  "URL": "http://www.just-eat.co.uk/restaurants-beijingexpress-wf17/menu",
  "address": "51 Cross Bank Road",
  "address line 2": "Batley",
  "name": "Beijing Express",
  "outcode": "WF17",
  "postcode": "8PN",
  "rating": 5,
  "type_of_food": "Chinese"
},
{
  "_id": {
    "$oid": "55f14313c7447c3da70522c4"
  },
  "URL": "http://www.just-eat.co.uk/restaurants-beijingexpress-wf17/menu",
  "address": "51 Cross Bank Road",
  "address line 2": "Batley",
  "name": "Beijing Express",
  "outcode": "WF17",
  "postcode": "8PN",
  "rating": 5,
  "type_of_food": "Chinese"
},
{
  "_id": {
    "$oid": "55f14313c7447c3da70522c5"
  },
  "URL": "http://www.just-eat.co.uk/restaurants-beijinggarden-sm3/menu",
  "address": "33-37 Malden Road",
  "address line 2": "Cheam-Surrey",
  "name": "Beijing Garden",
  "outcode": "SM3",
  "postcode": "8QW",
  "rating": 5,
  "type_of_food": "Chinese"
},
{
  "_id": {
    "$oid": "55f14313c7447c3da70522c6"
  },
  "URL": "http://www.just-eat.co.uk/restaurants-beijinggarden-sm3/menu",
  "address": "33-37 Malden Road",
  "address line 2": "Cheam-Surrey",
  "name": "Beijing Garden",
  "outcode": "SM3",
  "postcode": "8QW",
  "rating": 5,
  "type_of_food": "Chinese"
},
{
  "_id": {
    "$oid": "55f14313c7447c3da70522c7"
  },
  "URL": "http://www.just-eat.co.uk/restaurants-beijinghouse-nn2/menu",
  "address": "43 Kingsthorpe Road",
  "address line 2": "Northampton",
  "name": "Beijing House",
  "outcode": "NN2",
  "postcode": "6EZ",
  "rating": 4.5,
  "type_of_food": "Chinese"
},
{
  "_id": {
    "$oid": "55f14313c7447c3da70522c8"
  },
  "URL": "http://www.just-eat.co.uk/restaurants-beijinghouse-s2/menu",
  "address": "141 London Road",
  "address line 2": "Sheffield",
  "name": "Beijing House",
  "outcode": "S2",
  "postcode": "4LE",
  "rating": 4.5,
  "type_of_food": "Chinese"
},
{
  "_id": {
    "$oid": "55f14313c7447c3da70522c9"
  },
  "URL": "http://www.just-eat.co.uk/restaurants-beijinghouse-tw7/menu",
  "address": "564 London Road",
  "address line 2": "Middlesex",
  "name": "Beijing House",
  "outcode": "TW7",
  "postcode": "4EP",
  "rating": 4.5,
  "type_of_food": "Chinese"
},
{
  "_id": {
    "$oid": "55f14313c7447c3da70522ca"
  },
  "URL": "http://www.just-eat.co.uk/restaurants-beijinghouse-tw7/menu",
  "address": "564 London Road",
  "address line 2": "Middlesex",
  "name": "Beijing House",
  "outcode": "TW7",
  "postcode": "4EP",
  "rating": 4.5,
  "type_of_food": "Chinese"
},
{
  "_id": {
    "$oid": "55f14313c7447c3da70522cb"
  },
  "URL": "http://www.just-eat.co.uk/restaurants-beijinghouse-e13/menu",
  "address": "33 Balaam Street",
  "address line 2": "London",
  "name": "Beijing House",
  "outcode": "E13",
  "postcode": "8EB",
  "rating": 5,
  "type_of_food": "Chinese"
},
{
  "_id": {
    "$oid": "55f14313c7447c3da70522cc"
  },
  "URL": "http://www.just-eat.co.uk/restaurants-beijing-inn-sw16/menu",
  "address": "Bank Buildings Mitcham Lane",
  "address line 2": "London",
  "name": "Beijing Inn",
  "outcode": "SW16",
  "postcode": "6NG",
  "rating": 4.5,
  "type_of_food": "Chinese"
},
{
  "_id": {
    "$oid": "55f14313c7447c3da70522cd"
  },
  "URL": "http://www.just-eat.co.uk/restaurants-beijing-inn-sw16/menu",
  "address": "Bank Buildings Mitcham Lane",
  "address line 2": "London",
  "name": "Beijing Inn",
  "outcode": "SW16",
  "postcode": "6NG",
  "rating": 4.5,
  "type_of_food": "Chinese"
},
{
  "_id": {
    "$oid": "55f14313c7447c3da70522ce"
  },
  "URL": "http://www.just-eat.co.uk/restaurants-beijing-inn-sw16/menu",
  "address": "Bank Buildings Mitcham Lane",
  "address line 2": "London",
  "name": "Beijing Inn",
  "outcode": "SW16",
  "postcode": "6NG",
  "rating": 4.5,
  "type_of_food": "Chinese"
},
{
  "_id": {
    "$oid": "55f14313c7447c3da70522cf"
  },
  "URL": "http://www.just-eat.co.uk/restaurants-beijingkirkstall-ls4/menu",
  "address": "341 Kirkstall Road",
  "address line 2": "West Yorkshire",
  "name": "Beijing Kirkstall",
  "outcode": "LS4",
  "postcode": "2HD",
  "rating": 5,
  "type_of_food": "Chinese"
},
{
  "_id": {
    "$oid": "55f14313c7447c3da70522d0"
  },
  "URL": "http://www.just-eat.co.uk/restaurants-beijingmengzan-wd19/menu",
  "address": "313 Prestwick Road",
  "address line 2": "Watford",
  "name": "Beijing Meng Zan",
  "outcode": "WD19",
  "postcode": "6UT",
  "rating": 5,
  "type_of_food": "Chinese"
},
{
  "_id": {
    "$oid": "55f14313c7447c3da70522d1"
  },
  "URL": "http://www.just-eat.co.uk/restaurants-beijingmengzan-wd19/menu",
  "address": "313 Prestwick Road",
  "address line 2": "Watford",
  "name": "Beijing Meng Zan",
  "outcode": "WD19",
  "postcode": "6UT",
  "rating": 5,
  "type_of_food": "Chinese"
},
{
  "_id": {
    "$oid": "55f14313c7447c3da70522d2"
  },
  "URL": "http://www.just-eat.co.uk/restaurants-beijing-noodles-sw6/menu",
  "address": "310a Wandsworth Bridge Road",
  "address line 2": "Fulham",
  "name": "Beijing Noodles",
  "outcode": "SW6",
  "postcode": "2UA",
  "rating": 5,
  "type_of_food": "Chinese"
},
{
  "_id": {
    "$oid": "55f14313c7447c3da70522d3"
  },
  "URL": "http://www.just-eat.co.uk/restaurants-beijing-noodles-ub6/menu",
  "address": "108 Ruislip Road",
  "address line 2": "Greenford",
  "name": "Beijing Noodles",
  "outcode": "UB6",
  "postcode": "9QH",
  "rating": 5,
  "type_of_food": "Chinese"
},
{
  "_id": {
    "$oid": "55f14313c7447c3da70522d4"
  },
  "URL": "http://www.just-eat.co.uk/restaurants-beijing-noodles-sw6/menu",
  "address": "310a Wandsworth Bridge Road",
  "address line 2": "Fulham",
  "name": "Beijing Noodles",
  "outcode": "SW6",
  "postcode": "2UA",
  "rating": 5,
  "type_of_food": "Chinese"
},
{
  "_id": {
    "$oid": "55f14313c7447c3da70522d5"
  },
  "URL": "http://www.just-eat.co.uk/restaurants-beijing-noodles-sw6/menu",
  "address": "310a Wandsworth Bridge Road",
  "address line 2": "Fulham",
  "name": "Beijing Noodles",
  "outcode": "SW6",
  "postcode": "2UA",
  "rating": 5,
  "type_of_food": "Chinese"
},
{
  "_id": {
    "$oid": "55f14313c7447c3da70522d6"
  },
  "URL": "http://www.just-eat.co.uk/restaurants-beijing-noodles-sw6/menu",
  "address": "310a Wandsworth Bridge Road",
  "address line 2": "Fulham",
  "name": "Beijing Noodles",
  "outcode": "SW6",
  "postcode": "2UA",
  "rating": 5,
  "type_of_food": "Chinese"
},
{
  "_id": {
    "$oid": "55f14313c7447c3da70522d7"
  },
  "URL": "http://www.just-eat.co.uk/restaurants-beijing-noodles-ub6/menu",
  "address": "108 Ruislip Road",
  "address line 2": "Greenford",
  "name": "Beijing Noodles",
  "outcode": "UB6",
  "postcode": "9QH",
  "rating": 5,
  "type_of_food": "Chinese"
},
{
  "_id": {
    "$oid": "55f14313c7447c3da70522d8"
  },
  "URL": "http://www.just-eat.co.uk/restaurants-beijing-noodles-ub6/menu",
  "address": "108 Ruislip Road",
  "address line 2": "Greenford",
  "name": "Beijing Noodles",
  "outcode": "UB6",
  "postcode": "9QH",
  "rating": 5,
  "type_of_food": "Chinese"
},
{
  "_id": {
    "$oid": "55f14313c7447c3da70522d9"
  },
  "URL": "http://www.just-eat.co.uk/restaurants-beijing-noodles-ub6/menu",
  "address": "108 Ruislip Road",
  "address line 2": "Greenford",
  "name": "Beijing Noodles",
  "outcode": "UB6",
  "postcode": "9QH",
  "rating": 5,
  "type_of_food": "Chinese"
},
{
  "_id": {
    "$oid": "55f14313c7447c3da70522da"
  },
  "URL": "http://www.just-eat.co.uk/restaurants-beijingoriental-nw9/menu",
  "address": "31 Bowhay Lane",
  "address line 2": "Exeter",
  "name": "Beijing Oriental Express",
  "outcode": "EX4",
  "postcode": "1PE",
  "rating": 4.5,
  "type_of_food": "Chinese"
},
{
  "_id": {
    "$oid": "55f14313c7447c3da70522db"
  },
  "URL": "http://www.just-eat.co.uk/restaurants-beijingpalace-ka8/menu",
  "address": "242 Prestwick Road",
  "address line 2": "Ayr",
  "name": "Beijing Palace Restaurant",
  "outcode": "KA8",
  "postcode": "8NW",
  "rating": 4.5,
  "type_of_food": "Chinese"
},
{
  "_id": {
    "$oid": "55f14313c7447c3da70522dc"
  },
  "URL": "http://www.just-eat.co.uk/restaurants-beijingrestaurant-pr25/menu",
  "address": "11 Chapel Brow",
  "address line 2": "Leyland",
  "name": "Beijing Restaurant",
  "outcode": "PR25",
  "postcode": "3NH",
  "rating": 4.5,
  "type_of_food": "Chinese"
},
{
  "_id": {
    "$oid": "55f14313c7447c3da70522dd"
  },
  "URL": "http://www.just-eat.co.uk/restaurants-beijingtakeaway-bs22/menu",
  "address": "14 Feniton",
  "address line 2": "Avon",
  "name": "Beijing Takeaway",
  "outcode": "BS22",
  "postcode": "6LN",
  "rating": 5,
  "type_of_food": "Chinese"
},
{
  "_id": {
    "$oid": "55f14313c7447c3da70522fe"
  },
  "URL": "http://www.just-eat.co.uk/restaurants-bellachinese/menu",
  "address": "109 London Road",
  "address line 2": "Leicester",
  "name": "Bella Chinese",
  "outcode": "LE2",
  "postcode": "0PF",
  "rating": 4.5,
  "type_of_food": "Chinese"
},
{
  "_id": {
    "$oid": "55f14313c7447c3da7052301"
  },
  "URL": "http://www.just-eat.co.uk/restaurants-bellahouse-m21/menu",
  "address": "49 Manchester Road",
  "address line 2": "Chorlton",
  "name": "Bella House",
  "outcode": "M21",
  "postcode": "9PW",
  "rating": 5.5,
  "type_of_food": "Chinese"
},
{
  "_id": {
    "$oid": "55f14313c7447c3da7052336"
  },
  "URL": "http://www.just-eat.co.uk/restaurants-belmontwelcomechinese/menu",
  "address": "48 Belmont Road",
  "address line 2": "Belfast",
  "name": "Belmont Welcome Chinese",
  "outcode": "BT4",
  "postcode": "2AN",
  "rating": 4.5,
  "type_of_food": "Chinese"
},
{
  "_id": {
    "$oid": "55f14313c7447c3da705239f"
  },
  "URL": "http://www.just-eat.co.uk/restaurants-bennyssk8/menu",
  "address": "4 Gatley Road",
  "address line 2": "Cheadle",
  "name": "Bennys",
  "outcode": "SK8",
  "postcode": "1PY",
  "rating": 5,
  "type_of_food": "Chinese"
},
{
  "_id": {
    "$oid": "55f14313c7447c3da70523a0"
  },
  "URL": "http://www.just-eat.co.uk/restaurants-bennyssk8/menu",
  "address": "4 Gatley Road",
  "address line 2": "Cheadle",
  "name": "Bennys",
  "outcode": "SK8",
  "postcode": "1PY",
  "rating": 5,
  "type_of_food": "Chinese"
},
{
  "_id": {
    "$oid": "55f14313c7447c3da70523a3"
  },
  "URL": "http://www.just-eat.co.uk/restaurants-bennys-blackpool-and-fylde-industrial-estate/menu",
  "address": "81 Vicarage Lane",
  "address line 2": "Lancashire",
  "name": "Benny's",
  "outcode": "FY4",
  "postcode": "4EL",
  "rating": 5,
  "type_of_food": "Chinese"
},
{
  "_id": {
    "$oid": "55f14313c7447c3da70523ad"
  },
  "URL": "http://www.just-eat.co.uk/restaurants-bento-se13/menu",
  "address": "47 Lee High Street",
  "address line 2": "London",
  "name": "Bento",
  "outcode": "SE13",
  "postcode": "5NS",
  "rating": 5,
  "type_of_food": "Chinese"
},
{
  "_id": {
    "$oid": "55f14313c7447c3da70523b2"
  },
  "URL": "http://www.just-eat.co.uk/restaurants-bentoking-m15/menu",
  "address": "9 Greenheys Lane Hulme",
  "address line 2": "Manchester",
  "name": "Bento King (Hulme)",
  "outcode": "M15",
  "postcode": "6NQ",
  "rating": 5,
  "type_of_food": "Chinese"
},
{
  "_id": {
    "$oid": "55f14313c7447c3da70523b3"
  },
  "URL": "http://www.just-eat.co.uk/restaurants-bentoking-ls6/menu",
  "address": "10 Hyde Park Corner",
  "address line 2": "Leeds",
  "name": "Bento King (Leeds)",
  "outcode": "LS6",
  "postcode": "1AF",
  "rating": 5.5,
  "type_of_food": "Chinese"
},
{
  "_id": {
    "$oid": "55f14313c7447c3da70523b4"
  },
  "URL": "http://www.just-eat.co.uk/restaurants-bento-king-m20/menu",
  "address": "467 Princess road",
  "address line 2": "Manchester",
  "name": "Bento King (Withington)",
  "outcode": "M20",
  "postcode": "1BH",
  "rating": 5.5,
  "type_of_food": "Chinese"
},
{
  "_id": {
    "$oid": "55f14313c7447c3da70523b5"
  },
  "URL": "http://www.just-eat.co.uk/restaurants-bento-king-m20/menu",
  "address": "467 Princess road",
  "address line 2": "Manchester",
  "name": "Bento King (Withington)",
  "outcode": "M20",
  "postcode": "1BH",
  "rating": 5.5,
  "type_of_food": "Chinese"
},
{
  "_id": {
    "$oid": "55f14313c7447c3da70523ca"
  },
  "URL": "http://www.just-eat.co.uk/restaurants-Bestchoiceschinese-cr7/menu",
  "address": "17 Woodville Road",
  "address line 2": "Thornton Heath",
  "name": "Best Choices Chinese Takeaway",
  "outcode": "CR7",
  "postcode": "8LH",
  "rating": 5,
  "type_of_food": "Chinese"
},
{
  "_id": {
    "$oid": "55f14313c7447c3da70523cb"
  },
  "URL": "http://www.just-eat.co.uk/restaurants-Bestchoiceschinese-cr7/menu",
  "address": "17 Woodville Road",
  "address line 2": "Thornton Heath",
  "name": "Best Choices Chinese Takeaway",
  "outcode": "CR7",
  "postcode": "8LH",
  "rating": 5,
  "type_of_food": "Chinese"
},
{
  "_id": {
    "$oid": "55f14313c7447c3da70523cc"
  },
  "URL": "http://www.just-eat.co.uk/restaurants-Bestchoiceschinese-cr7/menu",
  "address": "17 Woodville Road",
  "address line 2": "Thornton Heath",
  "name": "Best Choices Chinese Takeaway",
  "outcode": "CR7",
  "postcode": "8LH",
  "rating": 5,
  "type_of_food": "Chinese"
},
{
  "_id": {
    "$oid": "55f14313c7447c3da70523cd"
  },
  "URL": "http://www.just-eat.co.uk/restaurants-best-chopsticks-hu19/menu",
  "address": "122 Queen Street Withersea",
  "address line 2": "Withernsea",
  "name": "Best Chopsticks",
  "outcode": "HU19",
  "postcode": "2HB",
  "rating": 5,
  "type_of_food": "Chinese"
},
{
  "_id": {
    "$oid": "55f14313c7447c3da70523d1"
  },
  "URL": "http://www.just-eat.co.uk/restaurants-best-food-ng8/menu",
  "address": "28 Wollaton Road",
  "address line 2": "Nottingham",
  "name": "Best Food",
  "outcode": "NG8",
  "postcode": "1FD",
  "rating": 5,
  "type_of_food": "Chinese"
},
{
  "_id": {
    "$oid": "55f14313c7447c3da7052474"
  },
  "URL": "http://www.just-eat.co.uk/restaurants-bigchina-fy4/menu",
  "address": "374-376 Vicarage Lane",
  "address line 2": "Lancashire",
  "name": "Big China",
  "outcode": "FY4",
  "postcode": "4LP",
  "rating": 5.5,
  "type_of_food": "Chinese"
},
{
  "_id": {
    "$oid": "55f14313c7447c3da70524a2"
  },
  "URL": "http://www.just-eat.co.uk/restaurants-bigwok-ab25/menu",
  "address": "411-413 George Street",
  "address line 2": "Aberdeen",
  "name": "Big Wok",
  "outcode": "AB25",
  "postcode": "1ER",
  "rating": 4.5,
  "type_of_food": "Chinese"
},
{
  "_id": {
    "$oid": "55f14313c7447c3da70524be"
  },
  "URL": "http://www.just-eat.co.uk/restaurants-bills-wok-inn/menu",
  "address": "Unit 2",
  "address line 2": "Aberdeen",
  "name": "Bill's Wok Inn",
  "outcode": "AB15",
  "postcode": "8TG",
  "rating": 5,
  "type_of_food": "Chinese"
},
{
  "_id": {
    "$oid": "55f14313c7447c3da70524ce"
  },
  "URL": "http://www.just-eat.co.uk/restaurants-bing/menu",
  "address": "202 Manor Place",
  "address line 2": "London",
  "name": "Bing Chinese Takeaway",
  "outcode": "SE17",
  "postcode": "3BN",
  "rating": 4.5,
  "type_of_food": "Chinese"
},
{
  "_id": {
    "$oid": "55f14313c7447c3da70524cf"
  },
  "URL": "http://www.just-eat.co.uk/restaurants-bing/menu",
  "address": "202 Manor Place",
  "address line 2": "London",
  "name": "Bing Chinese Takeaway",
  "outcode": "SE17",
  "postcode": "3BN",
  "rating": 4.5,
  "type_of_food": "Chinese"
},
{
  "_id": {
    "$oid": "55f14313c7447c3da70524f3"
  },
  "URL": "http://www.just-eat.co.uk/restaurants-black-bull-ox5/menu",
  "address": "2 Banbury Road",
  "address line 2": "Oxford",
  "name": "Black Bull",
  "outcode": "OX5",
  "postcode": "2BT",
  "rating": 4.5,
  "type_of_food": "Chinese"
},
{
  "_id": {
    "$oid": "55f14313c7447c3da70524f6"
  },
  "URL": "http://www.just-eat.co.uk/restaurants-black-elephant-southgate/menu",
  "address": "23 Ashfield Parade",
  "address line 2": "London",
  "name": "Black Elephant",
  "outcode": "N14",
  "postcode": "5EH",
  "rating": 5.5,
  "type_of_food": "Chinese"
},
{
  "_id": {
    "$oid": "55f14313c7447c3da70524f7"
  },
  "URL": "http://www.just-eat.co.uk/restaurants-black-elephant-southgate/menu",
  "address": "23 Ashfield Parade",
  "address line 2": "London",
  "name": "Black Elephant",
  "outcode": "N14",
  "postcode": "5EH",
  "rating": 5.5,
  "type_of_food": "Chinese"
},
{
  "_id": {
    "$oid": "55f14313c7447c3da70524fa"
  },
  "URL": "http://www.just-eat.co.uk/restaurants-blackpanda-la10/menu",
  "address": "319 Hunslet Road",
  "address line 2": "Leeds",
  "name": "Black Pandas",
  "outcode": "LS10",
  "postcode": "1NJ",
  "rating": 5,
  "type_of_food": "Chinese"
},
{
  "_id": {
    "$oid": "55f14313c7447c3da705250a"
  },
  "URL": "http://www.just-eat.co.uk/restaurants-blessing-dy4/menu",
  "address": "98 Ocker Hill Road",
  "address line 2": "Birmingham",
  "name": "Blessing",
  "outcode": "DY4",
  "postcode": "0UW",
  "rating": 5.5,
  "type_of_food": "Chinese"
},
{
  "_id": {
    "$oid": "55f14313c7447c3da705250b"
  },
  "URL": "http://www.just-eat.co.uk/restaurants-blessing-dy4/menu",
  "address": "98 Ocker Hill Road",
  "address line 2": "Birmingham",
  "name": "Blessing",
  "outcode": "DY4",
  "postcode": "0UW",
  "rating": 5.5,
  "type_of_food": "Chinese"
},
{
  "_id": {
    "$oid": "55f14313c7447c3da705250c"
  },
  "URL": "http://www.just-eat.co.uk/restaurants-blessing-dy4/menu",
  "address": "98 Ocker Hill Road",
  "address line 2": "Birmingham",
  "name": "Blessing",
  "outcode": "DY4",
  "postcode": "0UW",
  "rating": 5.5,
  "type_of_food": "Chinese"
},
{
  "_id": {
    "$oid": "55f14313c7447c3da7052510"
  },
  "URL": "http://www.just-eat.co.uk/restaurants-blossomhouse-cr2/menu",
  "address": "340 Limpsfield Road",
  "address line 2": "Croydon",
  "name": "Blossom House",
  "outcode": "CR2",
  "postcode": "9BX",
  "rating": 5.5,
  "type_of_food": "Chinese"
},
{
  "_id": {
    "$oid": "55f14313c7447c3da7052514"
  },
  "URL": "http://www.just-eat.co.uk/restaurants-bluebell-ch41/menu",
  "address": "126 Duke Street",
  "address line 2": "Birkenhead",
  "name": "Blue Bell",
  "outcode": "CH41",
  "postcode": "8BT",
  "rating": 5,
  "type_of_food": "Chinese"
}]